<?xml version="1.0" encoding="UTF-8"?>
<gpx xmlns="http://www.topografix.com/GPX/1/1" version="1.1" creator="Parco Studio">
  <wpt lon="13.346327853561718" lat="52.51434075465957">
    <ele>0</ele>
    <name>Keep Right</name>
    <type>GENERIC</type>
    <extensions>
      <coros_type>19</coros_type>
      <coros_flag>0</coros_flag>
    </extensions>
  </wpt>
  <wpt lon="13.368453830825672" lat="52.522046203750875">
    <ele>0</ele>
    <name>Keep Left</name>
    <type>GENERIC</type>
    <extensions>
      <coros_type>19</coros_type>
      <coros_flag>0</coros_flag>
    </extensions>
  </wpt>
  <wpt lon="13.392196751325116" lat="52.52815811932368">
    <ele>0</ele>
    <name>Keep Right</name>
    <type>GENERIC</type>
    <extensions>
      <coros_type>19</coros_type>
      <coros_flag>0</coros_flag>
    </extensions>
  </wpt>
  <wpt lon="13.418477207375304" lat="52.52154224433352">
    <ele>0</ele>
    <name>Clockwise Roundabout</name>
    <type>GENERIC</type>
    <extensions>
      <coros_type>19</coros_type>
      <coros_flag>0</coros_flag>
    </extensions>
  </wpt>
  <wpt lon="13.424650491318147" lat="52.51414545306031">
    <ele>0</ele>
    <name>Right then Left</name>
    <type>GENERIC</type>
    <extensions>
      <coros_type>19</coros_type>
      <coros_flag>0</coros_flag>
    </extensions>
  </wpt>
  <wpt lon="13.415013001207996" lat="52.527119517677136">
    <ele>0</ele>
    <name>Right Then Left</name>
    <type>GENERIC</type>
    <extensions>
      <coros_type>19</coros_type>
      <coros_flag>0</coros_flag>
    </extensions>
  </wpt>
  <wpt lon="13.413153318509387" lat="52.506795003154366">
    <ele>0</ele>
    <name>Left then Right</name>
    <type>GENERIC</type>
    <extensions>
      <coros_type>19</coros_type>
      <coros_flag>0</coros_flag>
    </extensions>
  </wpt>
  <wpt lon="13.41951656429535" lat="52.496793335311764">
    <ele>0</ele>
    <name>Keep Right</name>
    <type>GENERIC</type>
    <extensions>
      <coros_type>19</coros_type>
      <coros_flag>0</coros_flag>
    </extensions>
  </wpt>
  <wpt lon="13.33995064895808" lat="52.47539537855411">
    <ele>0</ele>
    <name>Right then Left</name>
    <type>GENERIC</type>
    <extensions>
      <coros_type>19</coros_type>
      <coros_flag>0</coros_flag>
    </extensions>
  </wpt>
  <wpt lon="13.302258954527474" lat="52.468360714747405">
    <ele>0</ele>
    <name>Keep Right</name>
    <type>GENERIC</type>
    <extensions>
      <coros_type>19</coros_type>
      <coros_flag>0</coros_flag>
    </extensions>
  </wpt>
  <wpt lon="13.305868252700321" lat="52.48824861446775">
    <ele>0</ele>
    <name>Left Then Right</name>
    <type>GENERIC</type>
    <extensions>
      <coros_type>19</coros_type>
      <coros_flag>0</coros_flag>
    </extensions>
  </wpt>
  <wpt lon="13.311067388010684" lat="52.49567275993331">
    <ele>0</ele>
    <name>Keep Right</name>
    <type>GENERIC</type>
    <extensions>
      <coros_type>19</coros_type>
      <coros_flag>0</coros_flag>
    </extensions>
  </wpt>
  <wpt lon="13.352989650118275" lat="52.49994194749996">
    <ele>0</ele>
    <name>Left Then Right</name>
    <type>GENERIC</type>
    <extensions>
      <coros_type>19</coros_type>
      <coros_flag>0</coros_flag>
    </extensions>
  </wpt>
  <wpt lon="13.384360493282616" lat="52.5165560045525">
    <ele>0</ele>
    <name>Last 800m</name>
    <type>GENERIC</type>
    <extensions>
      <coros_type>19</coros_type>
      <coros_flag>0</coros_flag>
    </extensions>
  </wpt>
  <wpt lon="13.313113497759876" lat="52.468805973277746">
    <ele>0</ele>
    <name>Right then Left</name>
    <type>GENERIC</type>
    <extensions>
      <coros_type>19</coros_type>
      <coros_flag>0</coros_flag>
    </extensions>
  </wpt>
  <wpt lon="13.384164007236782" lat="52.510008797743055">
    <ele>0</ele>
    <name>Left Then S-Curves</name>
    <type>GENERIC</type>
    <extensions>
      <coros_type>19</coros_type>
      <coros_flag>0</coros_flag>
    </extensions>
  </wpt>
  <trk>
    <name>berlin-marathon-with-smart-alerts.gpx</name>
    <trkseg>
      <trkpt lon="13.360131524108597" lat="52.515218038273126"/>
      <trkpt lon="13.355239033765981" lat="52.51491934230969"/>
      <trkpt lon="13.352445655041052" lat="52.514724108736566"/>
      <trkpt lon="13.35192553340461" lat="52.514728892275485"/>
      <trkpt lon="13.351264751015565" lat="52.51483930117579"/>
      <trkpt lon="13.350467625164478" lat="52.515017049240264"/>
      <trkpt lon="13.350047760181738" lat="52.515065234926674"/>
      <trkpt lon="13.349613242321325" lat="52.51500485974032"/>
      <trkpt lon="13.34911137094187" lat="52.51477583555957"/>
      <trkpt lon="13.348529629879309" lat="52.51452823488094"/>
      <trkpt lon="13.347956128386572" lat="52.514436228887654"/>
      <trkpt lon="13.342694382419799" lat="52.514085198624024"/>
      <trkpt lon="13.341776788975531" lat="52.513965840963586"/>
      <trkpt lon="13.339255512501532" lat="52.51377649298316"/>
      <trkpt lon="13.33856886699372" lat="52.51377649298316"/>
      <trkpt lon="13.331694286995258" lat="52.51332615574341"/>
      <trkpt lon="13.327421241392225" lat="52.513025805919476"/>
      <trkpt lon="13.323480694948517" lat="52.5128038069041"/>
      <trkpt lon="13.323072999178253" lat="52.51283645388847"/>
      <trkpt lon="13.322729676424347" lat="52.513006217816155"/>
      <trkpt lon="13.322590201555572" lat="52.513215157134574"/>
      <trkpt lon="13.322558015047393" lat="52.51336533165607"/>
      <trkpt lon="13.322586139982615" lat="52.51456976708803"/>
      <trkpt lon="13.322684280408561" lat="52.51478488072303"/>
      <trkpt lon="13.32456813237882" lat="52.51706083618288"/>
      <trkpt lon="13.325223194374987" lat="52.51768235357293"/>
      <trkpt lon="13.327601969095388" lat="52.520693893156555"/>
      <trkpt lon="13.328594200697509" lat="52.52193962815346"/>
      <trkpt lon="13.328625628768455" lat="52.5221642701397"/>
      <trkpt lon="13.328787319746581" lat="52.522429228558686"/>
      <trkpt lon="13.329473965254394" lat="52.52286660030601"/>
      <trkpt lon="13.329785101500121" lat="52.5230493812386"/>
      <trkpt lon="13.329849474516479" lat="52.523317023374844"/>
      <trkpt lon="13.329988949385253" lat="52.523747858510355"/>
      <trkpt lon="13.330203526106445" lat="52.523839247238286"/>
      <trkpt lon="13.335498998506145" lat="52.52477828022516"/>
      <trkpt lon="13.336981193047048" lat="52.52511515813144"/>
      <trkpt lon="13.339410803434205" lat="52.52570675887414"/>
      <trkpt lon="13.339781419258596" lat="52.52573527289281"/>
      <trkpt lon="13.34204318111464" lat="52.52546333702449"/>
      <trkpt lon="13.347640632168462" lat="52.524772777343955"/>
      <trkpt lon="13.352089139206877" lat="52.524193564422795"/>
      <trkpt lon="13.356496438355832" lat="52.52362741217038"/>
      <trkpt lon="13.362761837684983" lat="52.522891285648335"/>
      <trkpt lon="13.367840071470306" lat="52.5223055004762"/>
      <trkpt lon="13.368135381228154" lat="52.52221756216455"/>
      <trkpt lon="13.368863817778633" lat="52.52183813738946"/>
      <trkpt lon="13.370527999538071" lat="52.520948528079806"/>
      <trkpt lon="13.370764033931382" lat="52.52092894350826"/>
      <trkpt lon="13.37362289428711" lat="52.52093447078906"/>
      <trkpt lon="13.373929040568955" lat="52.52102033810075"/>
      <trkpt lon="13.375317758237614" lat="52.521696785287325"/>
      <trkpt lon="13.37640137067963" lat="52.5220493000778"/>
      <trkpt lon="13.38161385661523" lat="52.52290341146382"/>
      <trkpt lon="13.387073773052597" lat="52.52381972461486"/>
      <trkpt lon="13.38750292649498" lat="52.52392416868895"/>
      <trkpt lon="13.387524384167099" lat="52.524067778885346"/>
      <trkpt lon="13.387225564717395" lat="52.526938564577335"/>
      <trkpt lon="13.387279208897693" lat="52.52709521947169"/>
      <trkpt lon="13.387515243291004" lat="52.52720618301712"/>
      <trkpt lon="13.393544849156482" lat="52.52844634474348"/>
      <trkpt lon="13.397360499237857" lat="52.52934641733035"/>
      <trkpt lon="13.39781563575705" lat="52.52942290625625"/>
      <trkpt lon="13.403287458051997" lat="52.52972379183457"/>
      <trkpt lon="13.40372734033044" lat="52.529704211175265"/>
      <trkpt lon="13.409716416664148" lat="52.528684055876774"/>
      <trkpt lon="13.411610979927419" lat="52.52825576436116"/>
      <trkpt lon="13.414304314599347" lat="52.52751612590601"/>
      <trkpt lon="13.415578058106576" lat="52.52683716522142"/>
      <trkpt lon="13.416286454565629" lat="52.52649119048312"/>
      <trkpt lon="13.418020191088775" lat="52.5257561452653"/>
      <trkpt lon="13.419309144442465" lat="52.525236715602425"/>
      <trkpt lon="13.419424295425415" lat="52.52511595572781"/>
      <trkpt lon="13.419405703967001" lat="52.52500172310842"/>
      <trkpt lon="13.417013173525717" lat="52.52278881546404"/>
      <trkpt lon="13.416862969820883" lat="52.52259950550404"/>
      <trkpt lon="13.416648393099692" lat="52.522312275041266"/>
      <trkpt lon="13.416648393099692" lat="52.52222088313655"/>
      <trkpt lon="13.416798596804526" lat="52.52209685096172"/>
      <trkpt lon="13.418748442172532" lat="52.5214759937513"/>
      <trkpt lon="13.424289417447701" lat="52.5197586234319"/>
      <trkpt lon="13.425964546833784" lat="52.519286774232704"/>
      <trkpt lon="13.427157104695086" lat="52.51900319284654"/>
      <trkpt lon="13.42806596774067" lat="52.518942570118305"/>
      <trkpt lon="13.428688240232125" lat="52.51880547167445"/>
      <trkpt lon="13.428977918805733" lat="52.51860961601251"/>
      <trkpt lon="13.429031562986031" lat="52.51842028804273"/>
      <trkpt lon="13.428956461133614" lat="52.518289716553745"/>
      <trkpt lon="13.428774070920602" lat="52.518178730483"/>
      <trkpt lon="13.428269815625802" lat="52.51815914467667"/>
      <trkpt lon="13.427969408216134" lat="52.518106915817214"/>
      <trkpt lon="13.427851391019479" lat="52.51802204378816"/>
      <trkpt lon="13.427067710759353" lat="52.516867268445246"/>
      <trkpt lon="13.425715877415847" lat="52.51526768442751"/>
      <trkpt lon="13.424650491318147" lat="52.51414545306031"/>
      <trkpt lon="13.423098041417312" lat="52.51238828644874"/>
      <trkpt lon="13.42224502047399" lat="52.51130983827567"/>
      <trkpt lon="13.421389037088298" lat="52.510044147418036"/>
      <trkpt lon="13.421178253020818" lat="52.50990430292974"/>
      <trkpt lon="13.420991811250754" lat="52.509885653906515"/>
      <trkpt lon="13.416990214303874" lat="52.510860366004756"/>
      <trkpt lon="13.416649947867887" lat="52.51091024938411"/>
      <trkpt lon="13.416485959009075" lat="52.510919133158005"/>
      <trkpt lon="13.41636794181242" lat="52.51082118785896"/>
      <trkpt lon="13.414147072748088" lat="52.50800026957318"/>
      <trkpt lon="13.41155625362565" lat="52.50480039772787"/>
      <trkpt lon="13.410966167642373" lat="52.50415386472066"/>
      <trkpt lon="13.410751590921182" lat="52.50394488232107"/>
      <trkpt lon="13.410461912347573" lat="52.50380773708139"/>
      <trkpt lon="13.410333166314858" lat="52.50365099914069"/>
      <trkpt lon="13.410354623986978" lat="52.503481199074265"/>
      <trkpt lon="13.410228916424698" lat="52.503154412962914"/>
      <trkpt lon="13.409442678997374" lat="52.50188969135033"/>
      <trkpt lon="13.409438540540517" lat="52.501761616177944"/>
      <trkpt lon="13.409667978479165" lat="52.501639479294745"/>
      <trkpt lon="13.413623102865326" lat="52.500452273834284"/>
      <trkpt lon="13.417700399673626" lat="52.49927370115342"/>
      <trkpt lon="13.417807688034221" lat="52.49918879274835"/>
      <trkpt lon="13.417835483204348" lat="52.499022410423144"/>
      <trkpt lon="13.417990078247234" lat="52.498855688960305"/>
      <trkpt lon="13.418306301942224" lat="52.498754187118955"/>
      <trkpt lon="13.418462147033855" lat="52.49866627587687"/>
      <trkpt lon="13.418698181427166" lat="52.4982221316536"/>
      <trkpt lon="13.419688096755635" lat="52.49644660366384"/>
      <trkpt lon="13.421548298379372" lat="52.49368475843594"/>
      <trkpt lon="13.421796326245378" lat="52.493265515084424"/>
      <trkpt lon="13.423111978579975" lat="52.491194902035616"/>
      <trkpt lon="13.4231567472587" lat="52.49112848998007"/>
      <trkpt lon="13.424581179735391" lat="52.488761448685025"/>
      <trkpt lon="13.425008728764452" lat="52.4880623836618"/>
      <trkpt lon="13.42506237294475" lat="52.48789252338742"/>
      <trkpt lon="13.425008728764452" lat="52.4876638642899"/>
      <trkpt lon="13.424171879551805" lat="52.48667734998481"/>
      <trkpt lon="13.424043993377154" lat="52.48662031303438"/>
      <trkpt lon="13.423850014470018" lat="52.48659895054793"/>
      <trkpt lon="13.423485234043993" lat="52.48670021646089"/>
      <trkpt lon="13.421336244431691" lat="52.48728602785935"/>
      <trkpt lon="13.4185515387819" lat="52.48766356251744"/>
      <trkpt lon="13.414873082361515" lat="52.48813238681202"/>
      <trkpt lon="13.41037034241002" lat="52.48873917329694"/>
      <trkpt lon="13.408141823700772" lat="52.48904913340669"/>
      <trkpt lon="13.40755532276967" lat="52.489209559296775"/>
      <trkpt lon="13.406648736122637" lat="52.4894512760977"/>
      <trkpt lon="13.40609083664754" lat="52.489510071875436"/>
      <trkpt lon="13.40535372231089" lat="52.48955207604218"/>
      <trkpt lon="13.399320383795143" lat="52.49073887572216"/>
      <trkpt lon="13.39586253037091" lat="52.49145956092065"/>
      <trkpt lon="13.39057857861157" lat="52.49249496111671"/>
      <trkpt lon="13.38587398399945" lat="52.49338662692231"/>
      <trkpt lon="13.383979725976891" lat="52.49373712867505"/>
      <trkpt lon="13.383604216714806" lat="52.4937567253665"/>
      <trkpt lon="13.383196520944542" lat="52.49372406420925"/>
      <trkpt lon="13.382869291444726" lat="52.493622814467656"/>
      <trkpt lon="13.377199101587243" lat="52.49182967558302"/>
      <trkpt lon="13.376812863489098" lat="52.491692492548324"/>
      <trkpt lon="13.37652318491549" lat="52.49163696596023"/>
      <trkpt lon="13.376425398236096" lat="52.49162239490667"/>
      <trkpt lon="13.375869911191813" lat="52.4917239482685"/>
      <trkpt lon="13.371240404272235" lat="52.49263190577038"/>
      <trkpt lon="13.370277062535534" lat="52.49283523435875"/>
      <trkpt lon="13.368045464635143" lat="52.493276166846755"/>
      <trkpt lon="13.365533325580245" lat="52.49370122892039"/>
      <trkpt lon="13.361459033045255" lat="52.49438095710972"/>
      <trkpt lon="13.36127411596053" lat="52.494380414908555"/>
      <trkpt lon="13.36111571029135" lat="52.49434829641613"/>
      <trkpt lon="13.360992328676664" lat="52.49427644280482"/>
      <trkpt lon="13.360949413332426" lat="52.494152331745106"/>
      <trkpt lon="13.360708014521085" lat="52.491307479581025"/>
      <trkpt lon="13.360665099176847" lat="52.491127832910955"/>
      <trkpt lon="13.360530988726103" lat="52.490912255938255"/>
      <trkpt lon="13.36036469176718" lat="52.490709743273996"/>
      <trkpt lon="13.360225216898405" lat="52.4905888884978"/>
      <trkpt lon="13.360117928537809" lat="52.49055949133986"/>
      <trkpt lon="13.359952850790217" lat="52.490556611951625"/>
      <trkpt lon="13.3590276704735" lat="52.49049743060858"/>
      <trkpt lon="13.356061147303029" lat="52.49020019115507"/>
      <trkpt lon="13.351843408717201" lat="52.48976654616504"/>
      <trkpt lon="13.349543475844449" lat="52.48953729548507"/>
      <trkpt lon="13.345336349303425" lat="52.48914891683593"/>
      <trkpt lon="13.345121772582234" lat="52.48910645287785"/>
      <trkpt lon="13.345020398190313" lat="52.48902877266809"/>
      <trkpt lon="13.34496620445937" lat="52.48892679721702"/>
      <trkpt lon="13.344961878226357" lat="52.486920179737524"/>
      <trkpt lon="13.344999513145819" lat="52.4845329389692"/>
      <trkpt lon="13.345014555943745" lat="52.483773618939146"/>
      <trkpt lon="13.34490190316512" lat="52.48248972582121"/>
      <trkpt lon="13.344880445493" lat="52.48080721373857"/>
      <trkpt lon="13.34486232826824" lat="52.47960319052273"/>
      <trkpt lon="13.344855289762142" lat="52.47941696807703"/>
      <trkpt lon="13.34483845193625" lat="52.47929514069937"/>
      <trkpt lon="13.344765830107939" lat="52.479221364209764"/>
      <trkpt lon="13.343512415568739" lat="52.478246810026114"/>
      <trkpt lon="13.342485455890841" lat="52.47743510481035"/>
      <trkpt lon="13.340779801730731" lat="52.476088054963135"/>
      <trkpt lon="13.339844403819402" lat="52.4753205757227"/>
      <trkpt lon="13.337366042689641" lat="52.473382915259656"/>
      <trkpt lon="13.335588171873116" lat="52.47188399400154"/>
      <trkpt lon="13.33389326194279" lat="52.470314900178685"/>
      <trkpt lon="13.332690638505115" lat="52.46918687023953"/>
      <trkpt lon="13.332599443398609" lat="52.46911497552095"/>
      <trkpt lon="13.332502883874072" lat="52.469098635795795"/>
      <trkpt lon="13.332411688767566" lat="52.46911497552095"/>
      <trkpt lon="13.329382365354409" lat="52.471003741500134"/>
      <trkpt lon="13.329084461141472" lat="52.471204723420364"/>
      <trkpt lon="13.328955715108757" lat="52.47124066908753"/>
      <trkpt lon="13.328703587461357" lat="52.47125700801747"/>
      <trkpt lon="13.328265998645573" lat="52.47124536536152"/>
      <trkpt lon="13.328101454283559" lat="52.471298893817654"/>
      <trkpt lon="13.327695076871757" lat="52.47150862677229"/>
      <trkpt lon="13.327475135732536" lat="52.471524965602725"/>
      <trkpt lon="13.322014158178215" lat="52.47158051758088"/>
      <trkpt lon="13.319652894487799" lat="52.471616462941135"/>
      <trkpt lon="13.319473186483801" lat="52.47159936808532"/>
      <trkpt lon="13.319336318589903" lat="52.47155467609912"/>
      <trkpt lon="13.31757602672463" lat="52.47061376006397"/>
      <trkpt lon="13.315773784702172" lat="52.46981430517322"/>
      <trkpt lon="13.314395129268517" lat="52.46925875994236"/>
      <trkpt lon="13.311479224791203" lat="52.46823915280349"/>
      <trkpt lon="13.309639229406987" lat="52.467673783537464"/>
      <trkpt lon="13.309252991308842" lat="52.46756920576754"/>
      <trkpt lon="13.309140338530216" lat="52.46756920576754"/>
      <trkpt lon="13.308963312735234" lat="52.46766397938209"/>
      <trkpt lon="13.308162606105673" lat="52.468257775781964"/>
      <trkpt lon="13.308078183760319" lat="52.468284904912004"/>
      <trkpt lon="13.307975434341065" lat="52.46828070339522"/>
      <trkpt lon="13.306603461763" lat="52.46774107287067"/>
      <trkpt lon="13.306429359744717" lat="52.46771382998517"/>
      <trkpt lon="13.30610393412151" lat="52.46773510849388"/>
      <trkpt lon="13.303267035316159" lat="52.46817379256593"/>
      <trkpt lon="13.300542495406637" lat="52.468632194190015"/>
      <trkpt lon="13.294205130797389" lat="52.46974980162954"/>
      <trkpt lon="13.290712894659999" lat="52.47040991193139"/>
      <trkpt lon="13.290230097037318" lat="52.47050141158799"/>
      <trkpt lon="13.289977969389918" lat="52.47057983971368"/>
      <trkpt lon="13.289709748488429" lat="52.47073669554573"/>
      <trkpt lon="13.289602460127833" lat="52.470769373773734"/>
      <trkpt lon="13.28943079875088" lat="52.470769373773734"/>
      <trkpt lon="13.289326541086899" lat="52.47075240153245"/>
      <trkpt lon="13.289205493193629" lat="52.470766105952"/>
      <trkpt lon="13.286635469603327" lat="52.472682296665944"/>
      <trkpt lon="13.284017697916587" lat="52.47460547084848"/>
      <trkpt lon="13.281733871773426" lat="52.476349341323704"/>
      <trkpt lon="13.281369179893252" lat="52.47664705515847"/>
      <trkpt lon="13.281266026491911" lat="52.47673854184756"/>
      <trkpt lon="13.281223256380418" lat="52.47683127572542"/>
      <trkpt lon="13.281260662073882" lat="52.4769215146551"/>
      <trkpt lon="13.28387835784055" lat="52.47864992432046"/>
      <trkpt lon="13.28524784161749" lat="52.4795116297343"/>
      <trkpt lon="13.286258955508545" lat="52.48006186442604"/>
      <trkpt lon="13.289582830191637" lat="52.481907746169504"/>
      <trkpt lon="13.292569020047829" lat="52.48351057098511"/>
      <trkpt lon="13.294913919982013" lat="52.48478299640358"/>
      <trkpt lon="13.297883599656743" lat="52.48639531132069"/>
      <trkpt lon="13.300482143935296" lat="52.487756029432695"/>
      <trkpt lon="13.30126135482459" lat="52.48814378045502"/>
      <trkpt lon="13.301545542219605" lat="52.48823146500496"/>
      <trkpt lon="13.301971622731719" lat="52.48829609404457"/>
      <trkpt lon="13.302752038488457" lat="52.48828912105112"/>
      <trkpt lon="13.306043745958656" lat="52.48824267912958"/>
      <trkpt lon="13.30642461963877" lat="52.48824267912958"/>
      <trkpt lon="13.306898399107707" lat="52.488289044926525"/>
      <trkpt lon="13.307240011179298" lat="52.48834720777467"/>
      <trkpt lon="13.307846049041112" lat="52.48853113803799"/>
      <trkpt lon="13.308268324041999" lat="52.4886913958434"/>
      <trkpt lon="13.309300915750097" lat="52.48902156735903"/>
      <trkpt lon="13.311020407335374" lat="52.489532525119806"/>
      <trkpt lon="13.313785319847037" lat="52.49039072791261"/>
      <trkpt lon="13.313817506355216" lat="52.490439723352935"/>
      <trkpt lon="13.313779955429007" lat="52.49050505052179"/>
      <trkpt lon="13.312262489271678" lat="52.491745399091464"/>
      <trkpt lon="13.311026051698311" lat="52.49269177108594"/>
      <trkpt lon="13.310512193000518" lat="52.49310667216854"/>
      <trkpt lon="13.310212273245128" lat="52.493419765977336"/>
      <trkpt lon="13.310196327157398" lat="52.49350694527524"/>
      <trkpt lon="13.310494188363098" lat="52.49436260186187"/>
      <trkpt lon="13.311286874119611" lat="52.49626491788658"/>
      <trkpt lon="13.312093096545272" lat="52.49807028220511"/>
      <trkpt lon="13.312950975759499" lat="52.4997349344069"/>
      <trkpt lon="13.313128001554482" lat="52.50013334439957"/>
      <trkpt lon="13.313246018751137" lat="52.500482766585236"/>
      <trkpt lon="13.313267476423256" lat="52.50052521955879"/>
      <trkpt lon="13.313385493619911" lat="52.50057093809983"/>
      <trkpt lon="13.318030838174133" lat="52.50129440707766"/>
      <trkpt lon="13.32191247162052" lat="52.50190629405675"/>
      <trkpt lon="13.323054165972298" lat="52.502096487838166"/>
      <trkpt lon="13.325195968387042" lat="52.50243034599731"/>
      <trkpt lon="13.32949491280429" lat="52.50333426564575"/>
      <trkpt lon="13.333966895671704" lat="52.50428484307605"/>
      <trkpt lon="13.33449159316244" lat="52.50438379066116"/>
      <trkpt lon="13.335190693018685" lat="52.50439864055552"/>
      <trkpt lon="13.335773401251352" lat="52.50433440333075"/>
      <trkpt lon="13.33608118641163" lat="52.50429088472984"/>
      <trkpt lon="13.336521068690072" lat="52.50412108713511"/>
      <trkpt lon="13.338267277010694" lat="52.50344157464541"/>
      <trkpt lon="13.340604505828257" lat="52.502506619179094"/>
      <trkpt lon="13.341907495337066" lat="52.501986202746856"/>
      <trkpt lon="13.342268417905778" lat="52.50182025782013"/>
      <trkpt lon="13.34258816787548" lat="52.50169311944313"/>
      <trkpt lon="13.342873090582428" lat="52.50162046486143"/>
      <trkpt lon="13.343228862502832" lat="52.50156571955734"/>
      <trkpt lon="13.343853336433478" lat="52.50151172768571"/>
      <trkpt lon="13.344338153920834" lat="52.50143819473845"/>
      <trkpt lon="13.346149197860049" lat="52.50109371522371"/>
      <trkpt lon="13.3463745034173" lat="52.50111657420457"/>
      <trkpt lon="13.346640441028871" lat="52.50109939693417"/>
      <trkpt lon="13.347818906198121" lat="52.500874034565925"/>
      <trkpt lon="13.350520219638295" lat="52.50035197405526"/>
      <trkpt lon="13.351604220444772" lat="52.5001206174529"/>
      <trkpt lon="13.352183577591989" lat="52.50005203892105"/>
      <trkpt lon="13.352870223099801" lat="52.499963866365796"/>
      <trkpt lon="13.353438851410958" lat="52.499921412850185"/>
      <trkpt lon="13.354010757990533" lat="52.49981606770683"/>
      <trkpt lon="13.354835439006768" lat="52.49955877081602"/>
      <trkpt lon="13.355500626842462" lat="52.49935303227039"/>
      <trkpt lon="13.356696892063104" lat="52.49909504130495"/>
      <trkpt lon="13.357319164554559" lat="52.49895788093481"/>
      <trkpt lon="13.357727642132081" lat="52.49888822746149"/>
      <trkpt lon="13.359117504893762" lat="52.498605180875316"/>
      <trkpt lon="13.359591970014275" lat="52.49849201594421"/>
      <trkpt lon="13.361381289302331" lat="52.49810551761436"/>
      <trkpt lon="13.361858722506982" lat="52.49803040434561"/>
      <trkpt lon="13.361944553195459" lat="52.498066328098844"/>
      <trkpt lon="13.362043079387185" lat="52.49821833457015"/>
      <trkpt lon="13.36296024758937" lat="52.4998490103308"/>
      <trkpt lon="13.363668756343277" lat="52.50069105533974"/>
      <trkpt lon="13.36393460935712" lat="52.501005929434534"/>
      <trkpt lon="13.365186886645706" lat="52.50241852351107"/>
      <trkpt lon="13.365639938989506" lat="52.50295857937239"/>
      <trkpt lon="13.365694900993335" lat="52.50300751071133"/>
      <trkpt lon="13.366175249294269" lat="52.50358675701781"/>
      <trkpt lon="13.366778723125137" lat="52.50416349381207"/>
      <trkpt lon="13.367922470843592" lat="52.505250566393215"/>
      <trkpt lon="13.368249700343409" lat="52.50572076142849"/>
      <trkpt lon="13.369330248600399" lat="52.50752838127646"/>
      <trkpt lon="13.36982990316724" lat="52.50833936202703"/>
      <trkpt lon="13.36994685636017" lat="52.50844988049558"/>
      <trkpt lon="13.37023653493378" lat="52.50858701125188"/>
      <trkpt lon="13.370795238447473" lat="52.50886981927964"/>
      <trkpt lon="13.370969184920458" lat="52.508930611444214"/>
      <trkpt lon="13.371259534470141" lat="52.50897617921579"/>
      <trkpt lon="13.376313255539886" lat="52.50942804758984"/>
      <trkpt lon="13.379259971335896" lat="52.509692539095035"/>
      <trkpt lon="13.3816497848985" lat="52.50985685450032"/>
      <trkpt lon="13.384315981227214" lat="52.51002552712541"/>
      <trkpt lon="13.38660309647896" lat="52.510201177900456"/>
      <trkpt lon="13.38909684672926" lat="52.51036304074858"/>
      <trkpt lon="13.391824303301453" lat="52.51055480494574"/>
      <trkpt lon="13.392466251906527" lat="52.5106519557537"/>
      <trkpt lon="13.39316281845453" lat="52.51073561850672"/>
      <trkpt lon="13.396535964518037" lat="52.51103255663135"/>
      <trkpt lon="13.396627159624543" lat="52.511104382859834"/>
      <trkpt lon="13.396600337534394" lat="52.51139495140441"/>
      <trkpt lon="13.39642399863723" lat="52.51243805807521"/>
      <trkpt lon="13.3964061633543" lat="52.51247240745752"/>
      <trkpt lon="13.396277805157508" lat="52.512495203883915"/>
      <trkpt lon="13.395041450228433" lat="52.512443186589636"/>
      <trkpt lon="13.39364880828215" lat="52.512388677499615"/>
      <trkpt lon="13.393530791085494" lat="52.512408265878186"/>
      <trkpt lon="13.393484901496526" lat="52.51247190583204"/>
      <trkpt lon="13.393040664652016" lat="52.51468056241399"/>
      <trkpt lon="13.39298409526588" lat="52.514897214819925"/>
      <trkpt lon="13.392925790086956" lat="52.51494711360273"/>
      <trkpt lon="13.392743091837946" lat="52.51494218793953"/>
      <trkpt lon="13.388783958422437" lat="52.51475105919524"/>
      <trkpt lon="13.386405323851326" lat="52.51463831505301"/>
      <trkpt lon="13.386327696344944" lat="52.51465181467438"/>
      <trkpt lon="13.386257987005443" lat="52.51468493886393"/>
      <trkpt lon="13.385893178484531" lat="52.516075140808795"/>
      <trkpt lon="13.385764954470885" lat="52.516551228507346"/>
      <trkpt lon="13.385673759364378" lat="52.51660998805034"/>
      <trkpt lon="13.385571835421812" lat="52.5166263101317"/>
      <trkpt lon="13.384360493282616" lat="52.5165560045525"/>
      <trkpt lon="13.381235840007255" lat="52.51640759373807"/>
      <trkpt lon="13.378733713045072" lat="52.51630966067162"/>
      <trkpt lon="13.377802455106908" lat="52.51630877394806"/>
      <trkpt lon="13.376437742128324" lat="52.51625090072697"/>
      <trkpt lon="13.372530536147446" lat="52.51599300892955"/>
    </trkseg>
  </trk>
</gpx>