<gpx version="1.1" creator="Parco Studio" xmlns="http://www.topografix.com/GPX/1/1"><wpt lon="151.27795564019732" lat="-33.889076464483985"><ele>16.7</ele><name>Right to Finish</name><type>GENERIC</type><extensions><coros_type>19</coros_type><coros_flag>0</coros_flag></extensions></wpt><wpt lon="151.2805524" lat="-33.8898286"><ele>10.6</ele><name>Left U-turn</name><type>GENERIC</type><extensions><coros_type>19</coros_type><coros_flag>0</coros_flag></extensions></wpt><wpt lon="151.278233" lat="-33.8618198"><ele>67.8</ele><name>S-Bends Hit the apex</name><type>GENERIC</type><extensions><coros_type>19</coros_type><coros_flag>0</coros_flag></extensions></wpt><wpt lon="151.27953525559923" lat="-33.85795896404239"><ele>80.4</ele><name>Sharp Right</name><type>GENERIC</type><extensions><coros_type>19</coros_type><coros_flag>0</coros_flag></extensions></wpt><wpt lon="151.2749234" lat="-33.8591252"><ele>81.6</ele><name>Left Turn</name><type>GENERIC</type><extensions><coros_type>19</coros_type><coros_flag>0</coros_flag></extensions></wpt><wpt lon="151.246945" lat="-33.8748283"><ele>18.9</ele><name>Right Turns, Keep Right</name><type>GENERIC</type><extensions><coros_type>19</coros_type><coros_flag>0</coros_flag></extensions></wpt><wpt lon="151.23004332545065" lat="-33.87641979172562"><ele>11.4</ele><name>Climb 2 800m</name><type>GENERIC</type><extensions><coros_type>19</coros_type><coros_flag>0</coros_flag></extensions></wpt><wpt lon="151.21995407490851" lat="-33.87485610857829"><ele>29.8</ele><name>Tunnel: Watch Footing</name><type>GENERIC</type><extensions><coros_type>19</coros_type><coros_flag>0</coros_flag></extensions></wpt><wpt lon="151.21481800012413" lat="-33.87402180801192"><ele>19.2</ele><name>Climb 1.8k</name><type>GENERIC</type><extensions><coros_type>19</coros_type><coros_flag>0</coros_flag></extensions></wpt><wpt lon="151.23667054658324" lat="-33.878841094554325"><ele>41.6</ele><name>S-Bends Hit the apex</name><type>GENERIC</type><extensions><coros_type>19</coros_type><coros_flag>0</coros_flag></extensions></wpt><trk><name>City2Surf-2026-Alerts</name><trkseg><trkpt lon="151.212737" lat="-33.873665"><ele>30.4</ele></trkpt><trkpt lon="151.213202" lat="-33.873747"><ele>27.4</ele></trkpt><trkpt lon="151.213462" lat="-33.873804"><ele>25.3</ele></trkpt><trkpt lon="151.213741" lat="-33.873851"><ele>23.2</ele></trkpt><trkpt lon="151.213959" lat="-33.873878"><ele>21.7</ele></trkpt><trkpt lon="151.214345" lat="-33.873952"><ele>19.8</ele></trkpt><trkpt lon="151.214707" lat="-33.874013"><ele>19.2</ele></trkpt><trkpt lon="151.214984" lat="-33.874044"><ele>18.9</ele></trkpt><trkpt lon="151.21544520301956" lat="-33.87410096087879"><ele>18.9</ele></trkpt><trkpt lon="151.21567100271577" lat="-33.87413294678943"><ele>19.8</ele></trkpt><trkpt lon="151.216072" lat="-33.874189"><ele>20.7</ele></trkpt><trkpt lon="151.216354" lat="-33.874215"><ele>21.5</ele></trkpt><trkpt lon="151.216777" lat="-33.874296"><ele>23</ele></trkpt><trkpt lon="151.217022" lat="-33.874327"><ele>24</ele></trkpt><trkpt lon="151.217255" lat="-33.874372"><ele>24.6</ele></trkpt><trkpt lon="151.217482" lat="-33.874427"><ele>25.2</ele></trkpt><trkpt lon="151.217956" lat="-33.874525"><ele>26.1</ele></trkpt><trkpt lon="151.218252" lat="-33.874577"><ele>26.7</ele></trkpt><trkpt lon="151.218478" lat="-33.874609"><ele>27.1</ele></trkpt><trkpt lon="151.218712" lat="-33.874653"><ele>27.5</ele></trkpt><trkpt lon="151.218973" lat="-33.874700479220074"><ele>28</ele></trkpt><trkpt lon="151.219146" lat="-33.874726"><ele>28.4</ele></trkpt><trkpt lon="151.21938" lat="-33.874771"><ele>28.8</ele></trkpt><trkpt lon="151.219852" lat="-33.874833"><ele>29.8</ele></trkpt><trkpt lon="151.22023637309928" lat="-33.87490839902548"><ele>31.7</ele></trkpt><trkpt lon="151.220687" lat="-33.875003"><ele>34</ele></trkpt><trkpt lon="151.221147" lat="-33.875154"><ele>37.4</ele></trkpt><trkpt lon="151.221442" lat="-33.875277168812914"><ele>39.2</ele></trkpt><trkpt lon="151.221726" lat="-33.87539329666428"><ele>40.4</ele></trkpt><trkpt lon="151.22194" lat="-33.875486"><ele>35.6</ele></trkpt><trkpt lon="151.2225292892083" lat="-33.87578852985517"><ele>38.275000000000006</ele></trkpt><trkpt lon="151.22276931523592" lat="-33.875856955862034"><ele>39.612500000000004</ele></trkpt><trkpt lon="151.22300934126355" lat="-33.8759253818689"><ele>40.95</ele></trkpt><trkpt lon="151.22391278850444" lat="-33.8760903760967"><ele>43.625</ele></trkpt><trkpt lon="151.22473770833278" lat="-33.87621522866178"><ele>46.3</ele></trkpt><trkpt lon="151.22515053066104" lat="-33.87627959231503"><ele>45.55</ele></trkpt><trkpt lon="151.22551664483387" lat="-33.87630949143094"><ele>44.8</ele></trkpt><trkpt lon="151.22586827829429" lat="-33.876345785089356"><ele>41.8</ele></trkpt><trkpt lon="151.22649693144442" lat="-33.876357678754715"><ele>33.1</ele></trkpt><trkpt lon="151.22704682812412" lat="-33.87635337322466"><ele>25.1</ele></trkpt><trkpt lon="151.22734451005903" lat="-33.87633302850522"><ele>21.2</ele></trkpt><trkpt lon="151.22779734228385" lat="-33.87630373966236"><ele>18.5</ele></trkpt><trkpt lon="151.228056" lat="-33.876281"><ele>17</ele></trkpt><trkpt lon="151.22866" lat="-33.876208"><ele>14.2</ele></trkpt><trkpt lon="151.228898" lat="-33.876217"><ele>13.3</ele></trkpt><trkpt lon="151.229372" lat="-33.876268"><ele>12.4</ele></trkpt><trkpt lon="151.229915" lat="-33.876411"><ele>11.5</ele></trkpt><trkpt lon="151.230133" lat="-33.876448"><ele>11.4</ele></trkpt><trkpt lon="151.230487" lat="-33.876521"><ele>11.5</ele></trkpt><trkpt lon="151.230733" lat="-33.876561"><ele>11.8</ele></trkpt><trkpt lon="151.23092" lat="-33.876584"><ele>12.2</ele></trkpt><trkpt lon="151.231276" lat="-33.876644"><ele>13.2</ele></trkpt><trkpt lon="151.231488" lat="-33.876687"><ele>13.9</ele></trkpt><trkpt lon="151.231624" lat="-33.876709"><ele>14.3</ele></trkpt><trkpt lon="151.231847" lat="-33.876743"><ele>15</ele></trkpt><trkpt lon="151.232119" lat="-33.876814"><ele>16.3</ele></trkpt><trkpt lon="151.2324621446528" lat="-33.87688081144242"><ele>16.9</ele></trkpt><trkpt lon="151.23288354412404" lat="-33.876975886854424"><ele>19.5</ele></trkpt><trkpt lon="151.233223" lat="-33.877073"><ele>21.5</ele></trkpt><trkpt lon="151.23333" lat="-33.877101"><ele>21.9</ele></trkpt><trkpt lon="151.233431" lat="-33.877141"><ele>22.3</ele></trkpt><trkpt lon="151.233719" lat="-33.877317"><ele>23.5</ele></trkpt><trkpt lon="151.233966" lat="-33.877453"><ele>24.7</ele></trkpt><trkpt lon="151.234316" lat="-33.877738"><ele>27.1</ele></trkpt><trkpt lon="151.234549" lat="-33.877958"><ele>29.3</ele></trkpt><trkpt lon="151.234691" lat="-33.878107"><ele>30.8</ele></trkpt><trkpt lon="151.235029" lat="-33.878398"><ele>34.2</ele></trkpt><trkpt lon="151.2352" lat="-33.878513"><ele>35.4</ele></trkpt><trkpt lon="151.235347" lat="-33.878572"><ele>36.4</ele></trkpt><trkpt lon="151.235558" lat="-33.87863"><ele>37.5</ele></trkpt><trkpt lon="151.23574062562744" lat="-33.8786727479187"><ele>38.2</ele></trkpt><trkpt lon="151.23659046869074" lat="-33.878822812520696"><ele>41.6</ele></trkpt><trkpt lon="151.23684" lat="-33.878846"><ele>42.6</ele></trkpt><trkpt lon="151.237056" lat="-33.878882"><ele>43.3</ele></trkpt><trkpt lon="151.237505" lat="-33.878973"><ele>43.9</ele></trkpt><trkpt lon="151.237755" lat="-33.879012"><ele>43.6</ele></trkpt><trkpt lon="151.237924" lat="-33.879054"><ele>42.9</ele></trkpt><trkpt lon="151.23831283817105" lat="-33.87918551415894"><ele>40.7</ele></trkpt><trkpt lon="151.23848839950256" lat="-33.879180177919885"><ele>39.2</ele></trkpt><trkpt lon="151.238694" lat="-33.879155"><ele>37.5</ele></trkpt><trkpt lon="151.238761" lat="-33.879142"><ele>36.9</ele></trkpt><trkpt lon="151.239028" lat="-33.879065"><ele>34.6</ele></trkpt><trkpt lon="151.239283" lat="-33.878964"><ele>32.3</ele></trkpt><trkpt lon="151.239658" lat="-33.878773"><ele>28.8</ele></trkpt><trkpt lon="151.239893" lat="-33.878676"><ele>26.7</ele></trkpt><trkpt lon="151.24002" lat="-33.878634"><ele>25.6</ele></trkpt><trkpt lon="151.240291" lat="-33.87858"><ele>24.5</ele></trkpt><trkpt lon="151.2404829152539" lat="-33.878525002282295"><ele>21.9</ele></trkpt><trkpt lon="151.24073095079513" lat="-33.878493705453444"><ele>20.9</ele></trkpt><trkpt lon="151.24093958064202" lat="-33.878473620723"><ele>20</ele></trkpt><trkpt lon="151.2411163591749" lat="-33.878489511802144"><ele>18.6</ele></trkpt><trkpt lon="151.2413106329759" lat="-33.87848687068061"><ele>17.1</ele></trkpt><trkpt lon="151.24157880848043" lat="-33.87852473852546"><ele>15.6</ele></trkpt><trkpt lon="151.24181532090694" lat="-33.87849593089097"><ele>13.3</ele></trkpt><trkpt lon="151.24205107509374" lat="-33.878421028350566"><ele>12.4</ele></trkpt><trkpt lon="151.2422977214307" lat="-33.87831831301924"><ele>11.2</ele></trkpt><trkpt lon="151.24245638062536" lat="-33.87811736858478"><ele>10.6</ele></trkpt><trkpt lon="151.242814" lat="-33.877725"><ele>9.8</ele></trkpt><trkpt lon="151.243027" lat="-33.877613"><ele>9.4</ele></trkpt><trkpt lon="151.24314" lat="-33.87758"><ele>9.3</ele></trkpt><trkpt lon="151.243265" lat="-33.877535"><ele>9.2</ele></trkpt><trkpt lon="151.243366" lat="-33.877483"><ele>9</ele></trkpt><trkpt lon="151.243656" lat="-33.877402"><ele>8.7</ele></trkpt><trkpt lon="151.243873" lat="-33.877323"><ele>8.7</ele></trkpt><trkpt lon="151.24419532702314" lat="-33.877256995484466"><ele>8.6</ele></trkpt><trkpt lon="151.24442162149631" lat="-33.87720319081502"><ele>8.6</ele></trkpt><trkpt lon="151.2447834044583" lat="-33.877117285036874"><ele>8.8</ele></trkpt><trkpt lon="151.24494853270812" lat="-33.877002995270544"><ele>9.1</ele></trkpt><trkpt lon="151.24506903013975" lat="-33.87687854427705"><ele>9.8</ele></trkpt><trkpt lon="151.245135" lat="-33.876778"><ele>10.3</ele></trkpt><trkpt lon="151.245273" lat="-33.876633"><ele>11</ele></trkpt><trkpt lon="151.245559" lat="-33.876377"><ele>12.1</ele></trkpt><trkpt lon="151.245707" lat="-33.876239"><ele>12.7</ele></trkpt><trkpt lon="151.245812" lat="-33.876131"><ele>13.2</ele></trkpt><trkpt lon="151.245902" lat="-33.876018"><ele>13.7</ele></trkpt><trkpt lon="151.24612107314073" lat="-33.875815623094354"><ele>14.6</ele></trkpt><trkpt lon="151.24631681096793" lat="-33.87563617894923"><ele>15.4</ele></trkpt><trkpt lon="151.2463843452132" lat="-33.87548089681392"><ele>15.7</ele></trkpt><trkpt lon="151.24645834877458" lat="-33.87534940357096"><ele>16.4</ele></trkpt><trkpt lon="151.2466529365853" lat="-33.87513785548085"><ele>16.7</ele></trkpt><trkpt lon="151.24696581452042" lat="-33.87480640609142"><ele>18.9</ele></trkpt><trkpt lon="151.2470412197627" lat="-33.87463709473517"><ele>19.6</ele></trkpt><trkpt lon="151.24708665773488" lat="-33.87442999381852"><ele>20.5</ele></trkpt><trkpt lon="151.247156" lat="-33.873943"><ele>22.3</ele></trkpt><trkpt lon="151.247191" lat="-33.873675"><ele>23.3</ele></trkpt><trkpt lon="151.247186" lat="-33.873628"><ele>23.5</ele></trkpt><trkpt lon="151.247203" lat="-33.873441"><ele>24.3</ele></trkpt><trkpt lon="151.247284" lat="-33.873242"><ele>25.1</ele></trkpt><trkpt lon="151.247315" lat="-33.873203"><ele>25.3</ele></trkpt><trkpt lon="151.247533" lat="-33.873035"><ele>26.1</ele></trkpt><trkpt lon="151.247712" lat="-33.872982"><ele>26.6</ele></trkpt><trkpt lon="151.247948" lat="-33.872857"><ele>27.3</ele></trkpt><trkpt lon="151.248167" lat="-33.872792"><ele>27.5</ele></trkpt><trkpt lon="151.248393" lat="-33.872704"><ele>27.3</ele></trkpt><trkpt lon="151.248732" lat="-33.872591"><ele>26.8</ele></trkpt><trkpt lon="151.248967" lat="-33.872505"><ele>26.3</ele></trkpt><trkpt lon="151.249197" lat="-33.872433"><ele>25.6</ele></trkpt><trkpt lon="151.249659" lat="-33.872315"><ele>24.8</ele></trkpt><trkpt lon="151.249829" lat="-33.872258"><ele>24.6</ele></trkpt><trkpt lon="151.249985" lat="-33.872188"><ele>24.3</ele></trkpt><trkpt lon="151.250148" lat="-33.872126"><ele>24.1</ele></trkpt><trkpt lon="151.250276" lat="-33.87206"><ele>24</ele></trkpt><trkpt lon="151.250488" lat="-33.871887"><ele>23.8</ele></trkpt><trkpt lon="151.250622" lat="-33.871746"><ele>23.8</ele></trkpt><trkpt lon="151.250796" lat="-33.871616"><ele>24.1</ele></trkpt><trkpt lon="151.250955" lat="-33.871463"><ele>23.9</ele></trkpt><trkpt lon="151.251187" lat="-33.871211"><ele>23.3</ele></trkpt><trkpt lon="151.251331" lat="-33.871037"><ele>22.9</ele></trkpt><trkpt lon="151.251627" lat="-33.870628"><ele>20.8</ele></trkpt><trkpt lon="151.251701" lat="-33.870546"><ele>20.3</ele></trkpt><trkpt lon="151.251891" lat="-33.870342"><ele>19.5</ele></trkpt><trkpt lon="151.252033" lat="-33.870222"><ele>19</ele></trkpt><trkpt lon="151.252143" lat="-33.870172"><ele>18.7</ele></trkpt><trkpt lon="151.252329" lat="-33.870132"><ele>18.3</ele></trkpt><trkpt lon="151.252452" lat="-33.870121"><ele>18.1</ele></trkpt><trkpt lon="151.252635" lat="-33.870133"><ele>17.8</ele></trkpt><trkpt lon="151.252695" lat="-33.870144"><ele>17.7</ele></trkpt><trkpt lon="151.252936" lat="-33.870222"><ele>17.1</ele></trkpt><trkpt lon="151.25339" lat="-33.870404"><ele>15.1</ele></trkpt><trkpt lon="151.253446" lat="-33.870435"><ele>14.8</ele></trkpt><trkpt lon="151.253688" lat="-33.870538"><ele>13.5</ele></trkpt><trkpt lon="151.254106" lat="-33.870699"><ele>11.2</ele></trkpt><trkpt lon="151.254328" lat="-33.870799"><ele>9.9</ele></trkpt><trkpt lon="151.254575" lat="-33.870897"><ele>8.8</ele></trkpt><trkpt lon="151.255774" lat="-33.871426"><ele>7</ele></trkpt><trkpt lon="151.256198" lat="-33.871589"><ele>7</ele></trkpt><trkpt lon="151.256539" lat="-33.871735"><ele>7</ele></trkpt><trkpt lon="151.256755" lat="-33.871803"><ele>7</ele></trkpt><trkpt lon="151.257516" lat="-33.87202"><ele>7</ele></trkpt><trkpt lon="151.257735" lat="-33.872075"><ele>6.9</ele></trkpt><trkpt lon="151.257953" lat="-33.872123"><ele>6.9</ele></trkpt><trkpt lon="151.258348" lat="-33.872187"><ele>6.9</ele></trkpt><trkpt lon="151.258565" lat="-33.87223"><ele>7</ele></trkpt><trkpt lon="151.258907" lat="-33.872309"><ele>7</ele></trkpt><trkpt lon="151.25924" lat="-33.872358"><ele>6.9</ele></trkpt><trkpt lon="151.259864" lat="-33.872437"><ele>6.6</ele></trkpt><trkpt lon="151.260447" lat="-33.872485"><ele>6.3</ele></trkpt><trkpt lon="151.26066" lat="-33.872511"><ele>6.3</ele></trkpt><trkpt lon="151.261515" lat="-33.872566"><ele>6.3</ele></trkpt><trkpt lon="151.261814" lat="-33.872594"><ele>6.1</ele></trkpt><trkpt lon="151.262108" lat="-33.872639"><ele>6</ele></trkpt><trkpt lon="151.262446" lat="-33.872715"><ele>6</ele></trkpt><trkpt lon="151.262841" lat="-33.872792"><ele>6.2</ele></trkpt><trkpt lon="151.263014" lat="-33.87281"><ele>6.4</ele></trkpt><trkpt lon="151.263245" lat="-33.872779"><ele>6.7</ele></trkpt><trkpt lon="151.263635" lat="-33.872655"><ele>7</ele></trkpt><trkpt lon="151.263789" lat="-33.872573"><ele>7.1</ele></trkpt><trkpt lon="151.263921" lat="-33.872482"><ele>7.1</ele></trkpt><trkpt lon="151.26403" lat="-33.872369"><ele>7.1</ele></trkpt><trkpt lon="151.264152" lat="-33.872266"><ele>7.1</ele></trkpt><trkpt lon="151.264302" lat="-33.87218"><ele>7.1</ele></trkpt><trkpt lon="151.264508" lat="-33.872081"><ele>7</ele></trkpt><trkpt lon="151.264724" lat="-33.871988"><ele>6.9</ele></trkpt><trkpt lon="151.265415" lat="-33.871725"><ele>6.8</ele></trkpt><trkpt lon="151.265522" lat="-33.871677"><ele>6.8</ele></trkpt><trkpt lon="151.265899" lat="-33.871561"><ele>6.9</ele></trkpt><trkpt lon="151.266169" lat="-33.871452"><ele>7</ele></trkpt><trkpt lon="151.266383" lat="-33.87139"><ele>7</ele></trkpt><trkpt lon="151.266531" lat="-33.87134"><ele>7</ele></trkpt><trkpt lon="151.266732" lat="-33.871261"><ele>7.1</ele></trkpt><trkpt lon="151.266844" lat="-33.871232"><ele>7.2</ele></trkpt><trkpt lon="151.266998" lat="-33.871163"><ele>7.3</ele></trkpt><trkpt lon="151.267345" lat="-33.87099"><ele>7.6</ele></trkpt><trkpt lon="151.267429" lat="-33.870932"><ele>7.7</ele></trkpt><trkpt lon="151.267609" lat="-33.870824"><ele>7.8</ele></trkpt><trkpt lon="151.268338" lat="-33.870442"><ele>8</ele></trkpt><trkpt lon="151.268577" lat="-33.87031"><ele>7.7</ele></trkpt><trkpt lon="151.268668" lat="-33.87025"><ele>7.7</ele></trkpt><trkpt lon="151.268959" lat="-33.870094"><ele>7.5</ele></trkpt><trkpt lon="151.269171" lat="-33.869961"><ele>7.6</ele></trkpt><trkpt lon="151.269365" lat="-33.869857"><ele>7.7</ele></trkpt><trkpt lon="151.269451" lat="-33.869799"><ele>7.8</ele></trkpt><trkpt lon="151.269531" lat="-33.869734"><ele>7.9</ele></trkpt><trkpt lon="151.269625" lat="-33.869677"><ele>8</ele></trkpt><trkpt lon="151.26976" lat="-33.869577"><ele>8.4</ele></trkpt><trkpt lon="151.270064" lat="-33.869318"><ele>9.4</ele></trkpt><trkpt lon="151.270219" lat="-33.869176"><ele>10.2</ele></trkpt><trkpt lon="151.270419" lat="-33.8689"><ele>12.1</ele></trkpt><trkpt lon="151.270532" lat="-33.868738"><ele>13.3</ele></trkpt><trkpt lon="151.270555" lat="-33.868695"><ele>13.6</ele></trkpt><trkpt lon="151.270637" lat="-33.868486"><ele>15.1</ele></trkpt><trkpt lon="151.270734" lat="-33.868137"><ele>17.3</ele></trkpt><trkpt lon="151.270779" lat="-33.868006"><ele>18.1</ele></trkpt><trkpt lon="151.270831" lat="-33.867882"><ele>19</ele></trkpt><trkpt lon="151.270926" lat="-33.867725"><ele>20.3</ele></trkpt><trkpt lon="151.270991" lat="-33.867661"><ele>21</ele></trkpt><trkpt lon="151.271145" lat="-33.867539"><ele>22.5</ele></trkpt><trkpt lon="151.271365" lat="-33.867427"><ele>24.3</ele></trkpt><trkpt lon="151.271456" lat="-33.867393"><ele>25</ele></trkpt><trkpt lon="151.271635" lat="-33.867313"><ele>26.5</ele></trkpt><trkpt lon="151.27175" lat="-33.867239"><ele>27.6</ele></trkpt><trkpt lon="151.271851" lat="-33.867153"><ele>28.7</ele></trkpt><trkpt lon="151.271894" lat="-33.86708"><ele>29.3</ele></trkpt><trkpt lon="151.271902" lat="-33.867004"><ele>29.8</ele></trkpt><trkpt lon="151.271849" lat="-33.866665"><ele>31.9</ele></trkpt><trkpt lon="151.271841" lat="-33.866449"><ele>33.2</ele></trkpt><trkpt lon="151.27187" lat="-33.866365"><ele>33.8</ele></trkpt><trkpt lon="151.272004" lat="-33.866184"><ele>34.9</ele></trkpt><trkpt lon="151.27217" lat="-33.865977"><ele>36.3</ele></trkpt><trkpt lon="151.272475" lat="-33.865613"><ele>40.5</ele></trkpt><trkpt lon="151.272539" lat="-33.86555"><ele>41.4</ele></trkpt><trkpt lon="151.272637" lat="-33.865474"><ele>42.5</ele></trkpt><trkpt lon="151.272899" lat="-33.865314"><ele>45</ele></trkpt><trkpt lon="151.273043" lat="-33.865201"><ele>47</ele></trkpt><trkpt lon="151.273093" lat="-33.86514"><ele>47.6</ele></trkpt><trkpt lon="151.273109" lat="-33.865108"><ele>47.9</ele></trkpt><trkpt lon="151.273126" lat="-33.864936"><ele>49</ele></trkpt><trkpt lon="151.273017" lat="-33.86481"><ele>49.7</ele></trkpt><trkpt lon="151.272803" lat="-33.864676"><ele>50.7</ele></trkpt><trkpt lon="151.272598" lat="-33.864488"><ele>51.9</ele></trkpt><trkpt lon="151.272503" lat="-33.864388"><ele>52.5</ele></trkpt><trkpt lon="151.272452" lat="-33.864313"><ele>52.9</ele></trkpt><trkpt lon="151.272389" lat="-33.864155"><ele>53.6</ele></trkpt><trkpt lon="151.272367" lat="-33.864078"><ele>53.8</ele></trkpt><trkpt lon="151.272232" lat="-33.863459"><ele>57</ele></trkpt><trkpt lon="151.272169" lat="-33.862693"><ele>62.4</ele></trkpt><trkpt lon="151.272162" lat="-33.862309"><ele>65.6</ele></trkpt><trkpt lon="151.272138" lat="-33.861928"><ele>68.1</ele></trkpt><trkpt lon="151.27209" lat="-33.861654"><ele>69.1</ele></trkpt><trkpt lon="151.271984" lat="-33.861162"><ele>70.5</ele></trkpt><trkpt lon="151.271985" lat="-33.861069"><ele>70.5</ele></trkpt><trkpt lon="151.272029" lat="-33.860887"><ele>70.9</ele></trkpt><trkpt lon="151.272064" lat="-33.860804"><ele>71.1</ele></trkpt><trkpt lon="151.272179" lat="-33.86065"><ele>71.5</ele></trkpt><trkpt lon="151.272244" lat="-33.860578"><ele>71.8</ele></trkpt><trkpt lon="151.272391" lat="-33.860444"><ele>72.7</ele></trkpt><trkpt lon="151.272554" lat="-33.860334"><ele>73.7</ele></trkpt><trkpt lon="151.272859" lat="-33.86011"><ele>75.5</ele></trkpt><trkpt lon="151.273019" lat="-33.859958"><ele>76.9</ele></trkpt><trkpt lon="151.27326" lat="-33.8597"><ele>78.8</ele></trkpt><trkpt lon="151.273369" lat="-33.859563"><ele>79.4</ele></trkpt><trkpt lon="151.273521" lat="-33.859406"><ele>80</ele></trkpt><trkpt lon="151.273593" lat="-33.859348"><ele>80.2</ele></trkpt><trkpt lon="151.273634" lat="-33.859324"><ele>80.3</ele></trkpt><trkpt lon="151.273778" lat="-33.859278"><ele>80.5</ele></trkpt><trkpt lon="151.274199" lat="-33.859196"><ele>80.8</ele></trkpt><trkpt lon="151.274532" lat="-33.859159"><ele>81.2</ele></trkpt><trkpt lon="151.274804" lat="-33.859141"><ele>81.6</ele></trkpt><trkpt lon="151.275186" lat="-33.859091"><ele>82</ele></trkpt><trkpt lon="151.275398" lat="-33.859088"><ele>82.3</ele></trkpt><trkpt lon="151.275617" lat="-33.859133"><ele>82.5</ele></trkpt><trkpt lon="151.275936" lat="-33.859238"><ele>82.8</ele></trkpt><trkpt lon="151.276255" lat="-33.859352"><ele>82.7</ele></trkpt><trkpt lon="151.276703" lat="-33.859423"><ele>82.2</ele></trkpt><trkpt lon="151.277135" lat="-33.859446"><ele>81.4</ele></trkpt><trkpt lon="151.277612" lat="-33.859489"><ele>80</ele></trkpt><trkpt lon="151.277799" lat="-33.859482"><ele>79.5</ele></trkpt><trkpt lon="151.278049" lat="-33.85943"><ele>78.7</ele></trkpt><trkpt lon="151.278165" lat="-33.859382"><ele>78.4</ele></trkpt><trkpt lon="151.278212" lat="-33.859353"><ele>78.3</ele></trkpt><trkpt lon="151.278338" lat="-33.859245"><ele>78.4</ele></trkpt><trkpt lon="151.278396" lat="-33.85916"><ele>78.5</ele></trkpt><trkpt lon="151.278452" lat="-33.859025"><ele>78.7</ele></trkpt><trkpt lon="151.278546" lat="-33.858858"><ele>79</ele></trkpt><trkpt lon="151.278678" lat="-33.858698"><ele>79.3</ele></trkpt><trkpt lon="151.27882" lat="-33.858559"><ele>79.5</ele></trkpt><trkpt lon="151.279183" lat="-33.858276"><ele>79.8</ele></trkpt><trkpt lon="151.279341" lat="-33.858143"><ele>80</ele></trkpt><trkpt lon="151.279568" lat="-33.857942"><ele>80.4</ele></trkpt><trkpt lon="151.279714" lat="-33.857794"><ele>80.8</ele></trkpt><trkpt lon="151.279862" lat="-33.857658"><ele>81.2</ele></trkpt><trkpt lon="151.280088" lat="-33.857468"><ele>81.9</ele></trkpt><trkpt lon="151.280244" lat="-33.857347"><ele>82.4</ele></trkpt><trkpt lon="151.280433" lat="-33.857258"><ele>82.8</ele></trkpt><trkpt lon="151.280537" lat="-33.857224"><ele>82.9</ele></trkpt><trkpt lon="151.280974" lat="-33.857119"><ele>82.7</ele></trkpt><trkpt lon="151.281209" lat="-33.857053"><ele>82.5</ele></trkpt><trkpt lon="151.281381" lat="-33.857017"><ele>82.3</ele></trkpt><trkpt lon="151.281624" lat="-33.856976"><ele>82.2</ele></trkpt><trkpt lon="151.28182467813699" lat="-33.85698913417075"><ele>81.9</ele></trkpt><trkpt lon="151.2820970977406" lat="-33.85703172434975"><ele>81.6</ele></trkpt><trkpt lon="151.2822323022993" lat="-33.85707848223932"><ele>81.52499999999999</ele></trkpt><trkpt lon="151.28226139196386" lat="-33.85710438012353"><ele>81.44999999999999</ele></trkpt><trkpt lon="151.28228029014707" lat="-33.8571953766088"><ele>81.4125</ele></trkpt><trkpt lon="151.28223211215015" lat="-33.85729437775311"><ele>81.375</ele></trkpt><trkpt lon="151.28211372222842" lat="-33.85739417513495"><ele>81.3</ele></trkpt><trkpt lon="151.28194355822245" lat="-33.85749218104137"><ele>83.4</ele></trkpt><trkpt lon="151.2817403905844" lat="-33.857605243740565"><ele>83.7</ele></trkpt><trkpt lon="151.28145457363732" lat="-33.857845890625555"><ele>84</ele></trkpt><trkpt lon="151.28121533834894" lat="-33.858094260331185"><ele>84.2</ele></trkpt><trkpt lon="151.2809094032835" lat="-33.8584543868264"><ele>82.7</ele></trkpt><trkpt lon="151.28084" lat="-33.858568"><ele>81</ele></trkpt><trkpt lon="151.280757" lat="-33.858644"><ele>80.1</ele></trkpt><trkpt lon="151.280587" lat="-33.85883"><ele>77.6</ele></trkpt><trkpt lon="151.280368" lat="-33.859099"><ele>75.2</ele></trkpt><trkpt lon="151.280255" lat="-33.859215"><ele>74.6</ele></trkpt><trkpt lon="151.279922" lat="-33.859506"><ele>73.4</ele></trkpt><trkpt lon="151.279392" lat="-33.8601"><ele>70.9</ele></trkpt><trkpt lon="151.279118" lat="-33.860355"><ele>69.9</ele></trkpt><trkpt lon="151.27889017375492" lat="-33.86053453832812"><ele>69.5</ele></trkpt><trkpt lon="151.278712" lat="-33.860703"><ele>68.6</ele></trkpt><trkpt lon="151.278448" lat="-33.860965"><ele>68</ele></trkpt><trkpt lon="151.278328" lat="-33.861132"><ele>67.8</ele></trkpt><trkpt lon="151.278281" lat="-33.861224"><ele>67.8</ele></trkpt><trkpt lon="151.278234" lat="-33.861406"><ele>67.8</ele></trkpt><trkpt lon="151.278225" lat="-33.861497"><ele>67.8</ele></trkpt><trkpt lon="151.278222" lat="-33.861631"><ele>67.8</ele></trkpt><trkpt lon="151.27822808610927" lat="-33.861754626331226"><ele>67.8</ele></trkpt><trkpt lon="151.2782360719567" lat="-33.86191903354446"><ele>67.9</ele></trkpt><trkpt lon="151.27826733035297" lat="-33.86213773794465"><ele>68</ele></trkpt><trkpt lon="151.27829253414075" lat="-33.86224047452109"><ele>68</ele></trkpt><trkpt lon="151.278345" lat="-33.862502"><ele>68.1</ele></trkpt><trkpt lon="151.278376" lat="-33.86264"><ele>68.1</ele></trkpt><trkpt lon="151.278438" lat="-33.862766"><ele>68.1</ele></trkpt><trkpt lon="151.278515" lat="-33.862821"><ele>68</ele></trkpt><trkpt lon="151.278679" lat="-33.862884"><ele>67</ele></trkpt><trkpt lon="151.279256" lat="-33.862983"><ele>62.8</ele></trkpt><trkpt lon="151.280016" lat="-33.863093"><ele>57.8</ele></trkpt><trkpt lon="151.280261" lat="-33.86314"><ele>56.7</ele></trkpt><trkpt lon="151.28057" lat="-33.863187"><ele>55.5</ele></trkpt><trkpt lon="151.281045" lat="-33.863276"><ele>54.2</ele></trkpt><trkpt lon="151.281099" lat="-33.863298"><ele>54.1</ele></trkpt><trkpt lon="151.281148" lat="-33.863332"><ele>54.1</ele></trkpt><trkpt lon="151.28118" lat="-33.863375"><ele>54.2</ele></trkpt><trkpt lon="151.28119614432455" lat="-33.86344517714939"><ele>54</ele></trkpt><trkpt lon="151.2811287900412" lat="-33.86367862023636"><ele>54.5</ele></trkpt><trkpt lon="151.2810416861727" lat="-33.864051770120724"><ele>56.4</ele></trkpt><trkpt lon="151.28076165619404" lat="-33.86533319273093"><ele>58.8</ele></trkpt><trkpt lon="151.28067431724273" lat="-33.86574091829562"><ele>59.5</ele></trkpt><trkpt lon="151.28057690730853" lat="-33.86616826982511"><ele>62.4</ele></trkpt><trkpt lon="151.28053883666826" lat="-33.866482427677234"><ele>66.4</ele></trkpt><trkpt lon="151.280581" lat="-33.866526"><ele>66.9</ele></trkpt><trkpt lon="151.28064" lat="-33.866578"><ele>67.1</ele></trkpt><trkpt lon="151.280844" lat="-33.866637"><ele>66.9</ele></trkpt><trkpt lon="151.281132" lat="-33.866681"><ele>66.4</ele></trkpt><trkpt lon="151.281361" lat="-33.866723"><ele>66</ele></trkpt><trkpt lon="151.281597" lat="-33.866772"><ele>65.3</ele></trkpt><trkpt lon="151.281708" lat="-33.866813"><ele>65.1</ele></trkpt><trkpt lon="151.281812" lat="-33.866864"><ele>65</ele></trkpt><trkpt lon="151.281857" lat="-33.866895"><ele>65.1</ele></trkpt><trkpt lon="151.281933" lat="-33.866969"><ele>65.4</ele></trkpt><trkpt lon="151.281984" lat="-33.867053"><ele>65.9</ele></trkpt><trkpt lon="151.281998" lat="-33.867136"><ele>66.6</ele></trkpt><trkpt lon="151.282" lat="-33.867216"><ele>67.3</ele></trkpt><trkpt lon="151.281906" lat="-33.867653"><ele>71.8</ele></trkpt><trkpt lon="151.281871" lat="-33.867884"><ele>73.2</ele></trkpt><trkpt lon="151.281865" lat="-33.867966"><ele>73.6</ele></trkpt><trkpt lon="151.281828" lat="-33.868189"><ele>73.8</ele></trkpt><trkpt lon="151.281793" lat="-33.868336"><ele>73.8</ele></trkpt><trkpt lon="151.281758" lat="-33.868526"><ele>73.5</ele></trkpt><trkpt lon="151.281734" lat="-33.868755"><ele>73.7</ele></trkpt><trkpt lon="151.281615" lat="-33.869225"><ele>75.3</ele></trkpt><trkpt lon="151.281565" lat="-33.869388"><ele>75.7</ele></trkpt><trkpt lon="151.28143" lat="-33.869886"><ele>77.2</ele></trkpt><trkpt lon="151.281416" lat="-33.869966"><ele>77.4</ele></trkpt><trkpt lon="151.28136" lat="-33.870166"><ele>78.1</ele></trkpt><trkpt lon="151.281235" lat="-33.870666"><ele>80.3</ele></trkpt><trkpt lon="151.281225" lat="-33.870749"><ele>80.7</ele></trkpt><trkpt lon="151.281109" lat="-33.871284"><ele>82</ele></trkpt><trkpt lon="151.281075" lat="-33.871475"><ele>81.7</ele></trkpt><trkpt lon="151.280979" lat="-33.871908"><ele>80.9</ele></trkpt><trkpt lon="151.28093" lat="-33.872102"><ele>80.6</ele></trkpt><trkpt lon="151.280808" lat="-33.872535"><ele>80</ele></trkpt><trkpt lon="151.280686" lat="-33.873067"><ele>79.9</ele></trkpt><trkpt lon="151.28056729864676" lat="-33.87354729126915"><ele>80.3</ele></trkpt><trkpt lon="151.2805183905844" lat="-33.87378644498482"><ele>80.9</ele></trkpt><trkpt lon="151.28046824029443" lat="-33.874041711873325"><ele>81.8</ele></trkpt><trkpt lon="151.2804786969242" lat="-33.874219845187014"><ele>82.5</ele></trkpt><trkpt lon="151.280575" lat="-33.874592"><ele>81.9</ele></trkpt><trkpt lon="151.28056708610927" lat="-33.874690650712296"><ele>81</ele></trkpt><trkpt lon="151.28051843276802" lat="-33.87496222504903"><ele>80.3</ele></trkpt><trkpt lon="151.2804640065966" lat="-33.87523213648398"><ele>79.6</ele></trkpt><trkpt lon="151.28040502290236" lat="-33.87547521316634"><ele>78.8</ele></trkpt><trkpt lon="151.28031104378857" lat="-33.87589992894314"><ele>77.9</ele></trkpt><trkpt lon="151.2802136241308" lat="-33.87639326303042"><ele>77</ele></trkpt><trkpt lon="151.28012927803465" lat="-33.876763478781484"><ele>77.1</ele></trkpt><trkpt lon="151.28005157112713" lat="-33.87711905528387"><ele>77.6</ele></trkpt><trkpt lon="151.27997029281838" lat="-33.87747080465332"><ele>78.4</ele></trkpt><trkpt lon="151.27991770441167" lat="-33.87782841543694"><ele>77.8</ele></trkpt><trkpt lon="151.27985283284164" lat="-33.87809221551114"><ele>76.1</ele></trkpt><trkpt lon="151.2797574270767" lat="-33.8785865904932"><ele>75.8</ele></trkpt><trkpt lon="151.2796568583912" lat="-33.87903649769769"><ele>75.5</ele></trkpt><trkpt lon="151.27967093318637" lat="-33.87915494033606"><ele>75.1</ele></trkpt><trkpt lon="151.2797010742469" lat="-33.879233000648306"><ele>75</ele></trkpt><trkpt lon="151.27973771121387" lat="-33.87929135052661"><ele>75</ele></trkpt><trkpt lon="151.279768" lat="-33.87933"><ele>75.1</ele></trkpt><trkpt lon="151.27980657834053" lat="-33.87936056796728"><ele>75.3</ele></trkpt><trkpt lon="151.27987750048692" lat="-33.8793989468473"><ele>75.5</ele></trkpt><trkpt lon="151.28021159741616" lat="-33.87943419718631"><ele>76.5</ele></trkpt><trkpt lon="151.280728" lat="-33.879523"><ele>78</ele></trkpt><trkpt lon="151.280993" lat="-33.879555"><ele>78.4</ele></trkpt><trkpt lon="151.281212" lat="-33.879608"><ele>78.3</ele></trkpt><trkpt lon="151.281299" lat="-33.879673"><ele>78.2</ele></trkpt><trkpt lon="151.281354" lat="-33.879766"><ele>78.2</ele></trkpt><trkpt lon="151.28138937468978" lat="-33.87990751940137"><ele>76.9</ele></trkpt><trkpt lon="151.28138119997544" lat="-33.880094943194734"><ele>76.1</ele></trkpt><trkpt lon="151.28141352609066" lat="-33.8801922884443"><ele>75.7</ele></trkpt><trkpt lon="151.281493" lat="-33.880294"><ele>74.5</ele></trkpt><trkpt lon="151.281527" lat="-33.880346"><ele>74.1</ele></trkpt><trkpt lon="151.281608" lat="-33.880436"><ele>73.4</ele></trkpt><trkpt lon="151.281747" lat="-33.880555"><ele>72.3</ele></trkpt><trkpt lon="151.281941" lat="-33.880706"><ele>70.8</ele></trkpt><trkpt lon="151.282116" lat="-33.880858"><ele>69.5</ele></trkpt><trkpt lon="151.282266" lat="-33.880968"><ele>68.6</ele></trkpt><trkpt lon="151.282403" lat="-33.88109"><ele>67.7</ele></trkpt><trkpt lon="151.282508" lat="-33.881235"><ele>66.9</ele></trkpt><trkpt lon="151.282554" lat="-33.88134"><ele>66.4</ele></trkpt><trkpt lon="151.282585" lat="-33.881446"><ele>65.9</ele></trkpt><trkpt lon="151.282612" lat="-33.881714"><ele>64.7</ele></trkpt><trkpt lon="151.282626" lat="-33.88193"><ele>63.8</ele></trkpt><trkpt lon="151.28258232792575" lat="-33.88217876487568"><ele>63</ele></trkpt><trkpt lon="151.28258266562912" lat="-33.8824222774663"><ele>62</ele></trkpt><trkpt lon="151.2825654245809" lat="-33.88268653263027"><ele>60.4</ele></trkpt><trkpt lon="151.28255601138264" lat="-33.88287380425403"><ele>59.3</ele></trkpt><trkpt lon="151.28253449903337" lat="-33.88305007853107"><ele>58.7</ele></trkpt><trkpt lon="151.28254" lat="-33.883292"><ele>57.1</ele></trkpt><trkpt lon="151.282546" lat="-33.88345"><ele>56.1</ele></trkpt><trkpt lon="151.282581" lat="-33.883556"><ele>55.5</ele></trkpt><trkpt lon="151.282602" lat="-33.883607"><ele>55.2</ele></trkpt><trkpt lon="151.282775" lat="-33.883882"><ele>53.3</ele></trkpt><trkpt lon="151.28323771225615" lat="-33.884471355039224"><ele>49.5</ele></trkpt><trkpt lon="151.28345505469147" lat="-33.88478230563667"><ele>47.3</ele></trkpt><trkpt lon="151.283642" lat="-33.884962"><ele>47</ele></trkpt><trkpt lon="151.28375" lat="-33.885096"><ele>46.2</ele></trkpt><trkpt lon="151.283973" lat="-33.885303"><ele>45</ele></trkpt><trkpt lon="151.28409" lat="-33.885448"><ele>44.2</ele></trkpt><trkpt lon="151.284122" lat="-33.8855"><ele>44</ele></trkpt><trkpt lon="151.28421856616256" lat="-33.88573140220106"><ele>43</ele></trkpt><trkpt lon="151.2842776906432" lat="-33.88586793985453"><ele>42.5</ele></trkpt><trkpt lon="151.28437139734513" lat="-33.88627062624069"><ele>40.7</ele></trkpt><trkpt lon="151.28440608066498" lat="-33.88647980282311"><ele>39.6</ele></trkpt><trkpt lon="151.28442082226866" lat="-33.88663585308829"><ele>38.8</ele></trkpt><trkpt lon="151.28441732185033" lat="-33.88672591484876"><ele>38.1</ele></trkpt><trkpt lon="151.28436766243365" lat="-33.88684503751331"><ele>37.6</ele></trkpt><trkpt lon="151.2842120973134" lat="-33.887024905979736"><ele>36.6</ele></trkpt><trkpt lon="151.28361717124474" lat="-33.88753950799519"><ele>33.7</ele></trkpt><trkpt lon="151.28342037416863" lat="-33.88771824069872"><ele>32.8</ele></trkpt><trkpt lon="151.28333409402228" lat="-33.88785313615134"><ele>32.2</ele></trkpt><trkpt lon="151.28330648758222" lat="-33.88797773913634"><ele>31.5</ele></trkpt><trkpt lon="151.28331318033713" lat="-33.88807793130128"><ele>31.2</ele></trkpt><trkpt lon="151.283346" lat="-33.88818"><ele>30.6</ele></trkpt><trkpt lon="151.283455" lat="-33.888462"><ele>29.1</ele></trkpt><trkpt lon="151.283619" lat="-33.888805"><ele>27.1</ele></trkpt><trkpt lon="151.283692" lat="-33.889017"><ele>26.5</ele></trkpt><trkpt lon="151.2837" lat="-33.889176"><ele>26.2</ele></trkpt><trkpt lon="151.283641" lat="-33.889338"><ele>25.5</ele></trkpt><trkpt lon="151.283478" lat="-33.889588"><ele>23.8</ele></trkpt><trkpt lon="151.283436" lat="-33.889636"><ele>23.5</ele></trkpt><trkpt lon="151.28319957820344" lat="-33.88978529430877"><ele>22</ele></trkpt><trkpt lon="151.2829806193591" lat="-33.88987540686495"><ele>21.5</ele></trkpt><trkpt lon="151.282738" lat="-33.889935"><ele>19.9</ele></trkpt><trkpt lon="151.282468" lat="-33.889984"><ele>18.6</ele></trkpt><trkpt lon="151.282332" lat="-33.889956"><ele>17.8</ele></trkpt><trkpt lon="151.28208381578497" lat="-33.88985854407799"><ele>16.2</ele></trkpt><trkpt lon="151.28186107324268" lat="-33.88975409761275"><ele>14.9</ele></trkpt><trkpt lon="151.28156323349185" lat="-33.88972112410706"><ele>13.3</ele></trkpt><trkpt lon="151.281168" lat="-33.889787"><ele>12</ele></trkpt><trkpt lon="151.280908" lat="-33.889786"><ele>11</ele></trkpt><trkpt lon="151.280844" lat="-33.889788"><ele>10.8</ele></trkpt><trkpt lon="151.280577" lat="-33.889817"><ele>10.6</ele></trkpt><trkpt lon="151.280391" lat="-33.889817"><ele>10.7</ele></trkpt><trkpt lon="151.280164" lat="-33.88976"><ele>11</ele></trkpt><trkpt lon="151.280058" lat="-33.889716"><ele>11.1</ele></trkpt><trkpt lon="151.27957" lat="-33.889483"><ele>12.3</ele></trkpt><trkpt lon="151.279434" lat="-33.889408"><ele>12.9</ele></trkpt><trkpt lon="151.279108" lat="-33.88925"><ele>14.2</ele></trkpt><trkpt lon="151.278508" lat="-33.889045"><ele>16.1</ele></trkpt><trkpt lon="151.278299" lat="-33.888999"><ele>16.6</ele></trkpt><trkpt lon="151.278094" lat="-33.888961"><ele>16.9</ele></trkpt><trkpt lon="151.277876" lat="-33.888933"><ele>17.2</ele></trkpt><trkpt lon="151.277501" lat="-33.888903"><ele>17.7</ele></trkpt><trkpt lon="151.277053" lat="-33.888917"><ele>17.6</ele></trkpt><trkpt lon="151.276829" lat="-33.888952"><ele>17.6</ele></trkpt><trkpt lon="151.276722" lat="-33.888975"><ele>17.6</ele></trkpt><trkpt lon="151.276573" lat="-33.889038"><ele>17.5</ele></trkpt><trkpt lon="151.276528" lat="-33.889065"><ele>17.5</ele></trkpt><trkpt lon="151.276306" lat="-33.88923"><ele>17.5</ele></trkpt><trkpt lon="151.275781" lat="-33.889682"><ele>17.8</ele></trkpt><trkpt lon="151.275660818552" lat="-33.88980123972471"><ele>18.3</ele></trkpt><trkpt lon="151.2756693844675" lat="-33.889837236141936"><ele>18.1</ele></trkpt><trkpt lon="151.275714" lat="-33.889835"><ele>17.7</ele></trkpt><trkpt lon="151.27596310381767" lat="-33.88967758377954"><ele>17.4</ele></trkpt><trkpt lon="151.2763639863948" lat="-33.88938450259686"><ele>17</ele></trkpt><trkpt lon="151.27657772918235" lat="-33.8892470167914"><ele>16.9</ele></trkpt><trkpt lon="151.27675452692495" lat="-33.88917656210288"><ele>16.9</ele></trkpt><trkpt lon="151.27695906016027" lat="-33.88909432941753"><ele>16.8</ele></trkpt><trkpt lon="151.27708308329335" lat="-33.8890614050346"><ele>16.8</ele></trkpt><trkpt lon="151.277412084363" lat="-33.889023871697326"><ele>16.8</ele></trkpt><trkpt lon="151.27786399341022" lat="-33.88905853149993"><ele>16.7</ele></trkpt><trkpt lon="151.27834246271703" lat="-33.889154227248504"><ele>15.3</ele></trkpt><trkpt lon="151.278795" lat="-33.88925"><ele>13.9</ele></trkpt><trkpt lon="151.279056" lat="-33.889336"><ele>13.1</ele></trkpt><trkpt lon="151.279315" lat="-33.889434"><ele>12.2</ele></trkpt><trkpt lon="151.27958782194037" lat="-33.88957528113494"><ele>10.8</ele></trkpt><trkpt lon="151.2798020454891" lat="-33.88969037701275"><ele>10.7</ele></trkpt><trkpt lon="151.2798951252488" lat="-33.889756792868816"><ele>10.7</ele></trkpt><trkpt lon="151.27993632556692" lat="-33.889823248529986"><ele>10.7</ele></trkpt><trkpt lon="151.2799322578481" lat="-33.88990500000001"><ele>10.7</ele></trkpt><trkpt lon="151.27992432078088" lat="-33.88996881874322"><ele>10.6</ele></trkpt><trkpt lon="151.27988833590723" lat="-33.89003130836101"><ele>10.5</ele></trkpt><trkpt lon="151.2797646435635" lat="-33.890095548327494"><ele>10.3</ele></trkpt><trkpt lon="151.279486" lat="-33.890162"><ele>10.1</ele></trkpt><trkpt lon="151.27938818373823" lat="-33.8901675876994"><ele>10.1</ele></trkpt><trkpt lon="151.27918752088482" lat="-33.89018089480852"><ele>10.2</ele></trkpt><trkpt lon="151.27859963371483" lat="-33.890217459920585"><ele>10.3</ele></trkpt></trkseg></trk></gpx>